NORAD_CAT_ID,OBJECT_NAME,OBJECT_TYPE,EPOCH,MEAN_MOTION,ECCENTRICITY,INCLINATION,RA_OF_ASC_NODE,ARG_OF_PERICENTER,MEAN_ANOMALY,BSTAR,MEAN_MOTION_DOT,MEAN_MOTION_DDOT,TLE_LINE0,TLE_LINE1,TLE_LINE2,SEMIMAJOR_AXIS,PERIOD,APOGEE,PERIGEE,DECAYED
51120.0,STARLINK-3398,PAYLOAD,2022-07-10 08:10:16,15.08841247,0.0002569,53.217,177.2129,53.0073,307.1153,4.2662e-06,-2.21e-06,0.0,0 STARLINK-3398,1 51120U 22005S   22191.34046924 -.00000221  00000-0  42662-5 0  9996,2 51120  53.2170 177.2129 0002569  53.0073 307.1153 15.08841247 26837,6917.877,95.437,541.519,537.964,0.0
51120.0,STARLINK-3398,PAYLOAD,2022-07-10 16:07:11,15.08844697,0.000247,53.217,175.7269,49.8261,310.2947,4.9322e-06,-2.1e-06,0.0,0 STARLINK-3398,1 51120U 22005S   22191.67166602 -.00000210  00000-0  49322-5 0  9996,2 51120  53.2170 175.7269 0002470  49.8261 310.2947 15.08844697 27994,6917.866,95.437,541.44,538.0219999999998,0.0
51120.0,STARLINK-3398,PAYLOAD,2022-07-11 08:01:02,15.08846255,0.0002484,53.2167,172.7535,50.4725,309.6486,4.7088e-05,4.61e-06,0.0,0 STARLINK-3398,1 51120U 22005S   22192.33406187  .00000461  00000-0  47088-4 0  9998,2 51120  53.2167 172.7535 0002484  50.4725 309.6486 15.08846255 26981,6917.861,95.437,541.445,538.008,0.0
51120.0,STARLINK-3398,PAYLOAD,2022-07-11 15:57:58,15.08851749,0.0002576,53.2179,171.2661,52.6181,307.5045,3.5938e-05,2.84e-06,0.0,0 STARLINK-3398,1 51120U 22005S   22192.66525746  .00000284  00000-0  35938-4 0  9991,2 51120  53.2179 171.2661 0002576  52.6181 307.5045 15.08851749 27039,6917.844,95.437,541.492,537.927,0.0
51120.0,STARLINK-3398,PAYLOAD,2022-07-12 03:05:40,15.08841284,0.0002571,53.2179,169.1851,53.0339,307.0888,8.7967e-05,1.112e-05,0.0,0 STARLINK-3398,1 51120U 22005S   22193.12894375  .00001112  00000-0  87967-4 0  9990,2 51120  53.2179 169.1851 0002571  53.0339 307.0888 15.08841284 28215,6917.876,95.437,541.52,537.9630000000002,0.0
51120.0,STARLINK-3398,PAYLOAD,2022-07-12 15:48:46,15.08839448,0.0002578,53.2178,166.8064,53.182,306.9408,4.5874e-05,4.42e-06,0.0,0 STARLINK-3398,1 51120U 22005S   22193.65886620  .00000442  00000-0  45874-4 0  9998,2 51120  53.2178 166.8064 0002578  53.1820 306.9408 15.08839448 27187,6917.882,95.438,541.531,537.964,0.0
51120.0,STARLINK-3398,PAYLOAD,2022-07-13 04:31:50,15.08847668,0.0002556,53.2176,164.4272,53.402,306.7207,9.3018e-05,1.193e-05,0.0,0 STARLINK-3398,1 51120U 22005S   22194.18877813  .00001193  00000-0  93018-4 0  9998,2 51120  53.2176 164.4272 0002556  53.4020 306.7207 15.08847668 28371,6917.857,95.437,541.49,537.9540000000002,0.0
51120.0,STARLINK-3398,PAYLOAD,2022-07-13 07:42:36,15.08850804,0.0002586,53.2179,163.8324,53.7804,306.3427,8.2917e-05,1.032e-05,0.0,0 STARLINK-3398,1 51120U 22005S   22194.32125580  .00001032  00000-0  82917-4 0  9999,2 51120  53.2179 163.8324 0002586  53.7804 306.3427 15.08850804 27286,6917.847,95.437,541.501,537.923,0.0
51120.0,STARLINK-3398,PAYLOAD,2022-07-14 04:22:38,15.08827013,0.0002498,53.218,159.9673,51.9371,308.1847,-7.475199999999999e-05,-1.478e-05,0.0,0 STARLINK-3398,1 51120U 22005S   22195.18239225 -.00001478  00000-0 -74752-4 0  9990,2 51120  53.2180 159.9673 0002498  51.9371 308.1847 15.08827013 28522,6917.92,95.438,541.513,538.057,0.0
51120.0,STARLINK-3398,PAYLOAD,2022-07-14 07:33:25,15.08823909,0.0002469,53.2165,159.3706,52.7615,307.3602,-4.4049e-05,-9.89e-06,0.0,0 STARLINK-3398,1 51120U 22005S   22195.31487413 -.00000989  00000-0 -44049-4 0  9991,2 51120  53.2165 159.3706 0002469  52.7615 307.3602 15.08823909 27433,6917.93,95.439,541.503,538.087,0.0
51120.0,STARLINK-3398,PAYLOAD,2022-07-15 04:13:25,15.08837794,0.0002485,53.2166,155.5049,52.0255,308.0961,-4.8851e-05,-1.066e-05,0.0,0 STARLINK-3398,1 51120U 22005S   22196.17599034 -.00001066  00000-0 -48851-4 0  9991,2 51120  53.2166 155.5049 0002485  52.0255 308.0961 15.08837794 28673,6917.887,95.438,541.471,538.033,0.0
51120.0,STARLINK-3398,PAYLOAD,2022-07-15 13:45:44,15.08842621,0.0002531,53.2174,153.7221,51.2842,308.8376,-2.6035e-06,-3.3e-06,0.0,0 STARLINK-3398,1 51120U 22005S   22196.57342682 -.00000330  00000-0 -26035-5 0  9994,2 51120  53.2174 153.7221 0002531  51.2842 308.8376 15.08842621 27626,6917.871999999999,95.437,541.488,537.986,0.0
51120.0,STARLINK-3398,PAYLOAD,2022-07-16 05:39:36,15.08828722,0.0002497,53.2179,150.7498,53.7622,306.3601,0.00015852,2.235e-05,0.0,0 STARLINK-3398,1 51120U 22005S   22197.23583356  .00002235  00000-0  15852-3 0  9990,2 51120  53.2179 150.7498 0002497  53.7622 306.3601 15.08828722 28832,6917.915,95.438,541.507,538.052,0.0
51120.0,STARLINK-3398,PAYLOAD,2022-07-16 13:36:31,15.08829247,0.0002502,53.2179,149.263,54.2022,305.9202,0.00014121,1.959e-05,0.0,0 STARLINK-3398,1 51120U 22005S   22197.56703660  .00001959  00000-0  14121-3 0  9998,2 51120  53.2179 149.2630 0002502  54.2022 305.9202 15.08829247 27777,6917.913000000001,95.438,541.509,538.047,0.0
51120.0,STARLINK-3398,PAYLOAD,2022-07-17 03:54:59,15.08845627,0.0002555,53.2174,146.5861,53.937,306.1858,0.00015692,2.21e-05,0.0,0 STARLINK-3398,1 51120U 22005S   22198.16318844  .00002210  00000-0  15692-3 0  9996,2 51120  53.2174 146.5861 0002555  53.9370 306.1858 15.08845627 28971,6917.863,95.437,541.496,537.961,0.0
51120.0,STARLINK-3398,PAYLOAD,2022-07-17 13:27:18,15.08838304,0.0002388,53.2168,144.8024,54.7404,305.3811,2.4904e-05,1.08e-06,0.0,0 STARLINK-3398,1 51120U 22005S   22198.56063238  .00000108  00000-0  24904-4 0  9995,2 51120  53.2168 144.8024 0002388  54.7404 305.3811 15.08838304 27925,6917.886,95.438,541.403,538.099,0.0
51120.0,STARLINK-3398,PAYLOAD,2022-07-18 05:21:10,15.08835026,0.0002292,53.2173,141.8281,54.9638,305.1569,-9.0143e-05,-1.723e-05,0.0,0 STARLINK-3398,1 51120U 22005S   22199.22303380 -.00001723  00000-0 -90143-4 0  9998,2 51120  53.2173 141.8281 0002292  54.9638 305.1569 15.08835026 28026,6917.896,95.438,541.346,538.175,0.0
51120.0,STARLINK-3398,PAYLOAD,2022-07-19 03:36:33,15.08844423,0.0002378,53.2177,137.6662,57.3031,302.819,0.00012242,1.661e-05,0.0,0 STARLINK-3398,1 51120U 22005S   22200.15039203  .00001661  00000-0  12242-3 0  9995,2 51120  53.2177 137.6662 0002378  57.3031 302.8190 15.08844423 29278,6917.8669999999975,95.437,541.377,538.087,0.0
51120.0,STARLINK-3398,PAYLOAD,2022-07-19 13:08:53,15.08839527,0.0002355,53.2171,135.8818,57.6248,302.4972,9.9719e-05,1.299e-05,0.0,0 STARLINK-3398,1 51120U 22005S   22200.54783582  .00001299  00000-0  99719-4 0  9996,2 51120  53.2171 135.8818 0002355  57.6248 302.4972 15.08839527 28220,6917.882,95.438,541.376,538.118,0.0
51120.0,STARLINK-3398,PAYLOAD,2022-07-20 12:59:39,15.08849754,0.0002469,53.2167,131.4217,53.1405,306.9814,0.00035148,5.312e-05,0.0,0 STARLINK-3398,1 51120U 22005S   22201.54143209  .00005312  00000-0  35148-3 0  9998,2 51120  53.2167 131.4217 0002469  53.1405 306.9814 15.08849754 29488,6917.851,95.437,541.424,538.008,0.0
51120.0,STARLINK-3398,PAYLOAD,2022-07-21 03:18:08,15.08842607,0.0002234999999999,53.2172,128.7449,58.0288,302.0921,0.00010212,1.337e-05,0.0,0 STARLINK-3398,1 51120U 22005S   22202.13759321  .00001337  00000-0  10212-3 0  9990,2 51120  53.2172 128.7449 0002235  58.0288 302.0921 15.08842607 29570,6917.871999999999,95.437,541.284,538.191,0.0
51120.0,STARLINK-3398,PAYLOAD,2022-07-21 06:28:54,15.08845144,0.0002221,53.2173,128.1505,57.1466,302.9739,0.00014923,2.088e-05,0.0,0 STARLINK-3398,1 51120U 22005S   22202.27007251  .00002088  00000-0  14923-3 0  9990,2 51120  53.2173 128.1505 0002221  57.1466 302.9739 15.08845144 28485,6917.865,95.437,541.266,538.193,0.0
51120.0,STARLINK-3398,PAYLOAD,2022-07-22 01:33:31,15.08845518,0.0002227,53.2175,124.5822,57.3961,302.7246,0.00013248,1.821e-05,0.0,0 STARLINK-3398,1 51120U 22005S   22203.06495185  .00001821  00000-0  13248-3 0  9998,2 51120  53.2175 124.5822 0002227  57.3961 302.7246 15.08845518 28607,6917.864000000001,95.437,541.269,538.188,0.0
51120.0,STARLINK-3398,PAYLOAD,2022-07-22 19:02:46,15.08836777,0.0002201999999999,53.2177,121.3115,57.2868,302.8337,6.5456e-05,7.54e-06,0.0,0 STARLINK-3398,1 51120U 22005S   22203.79359657  .00000754  00000-0  65456-4 0  9994,2 51120  53.2177 121.3115 0002202  57.2868 302.8337 15.08836777 28718,6917.89,95.438,541.279,538.232,0.0
51120.0,STARLINK-3398,PAYLOAD,2022-07-23 04:35:05,15.0884225,0.0002148,53.2179,119.5277,56.3143,303.8053,0.00012461,1.696e-05,0.0,0 STARLINK-3398,1 51120U 22005S   22204.19103446  .00001696  00000-0  12461-3 0  9995,2 51120  53.2179 119.5277 0002148  56.3143 303.8053 15.08842250 29881,6917.874,95.437,541.224,538.253,0.0
51120.0,STARLINK-3398,PAYLOAD,2022-07-23 10:56:38,15.08833089,0.0002226,53.2178,118.3379,56.2069,303.9135,0.00027112,4.029e-05,0.0,0 STARLINK-3398,1 51120U 22005S   22204.45599990  .00004029  00000-0  27112-3 0  9999,2 51120  53.2178 118.3379 0002226  56.2069 303.9135 15.08833089 28817,6917.901999999999,95.438,541.306,538.227,0.0
51120.0,STARLINK-3398,PAYLOAD,2022-07-23 20:28:57,15.08827241,0.0002037,53.2185,116.5555,62.815,297.305,-8.9819e-05,-1.717e-05,0.0,0 STARLINK-3398,1 51120U 22005S   22204.85344284 -.00001717  00000-0 -89819-4 0  9993,2 51120  53.2185 116.5555 0002037  62.8150 297.3050 15.08827241 28876,6917.919,95.438,541.194,538.375,0.0
51120.0,STARLINK-3398,PAYLOAD,2022-07-24 02:50:30,15.08824321,0.000198,53.2187,115.3651,54.5852,305.5325,-3.5536e-05,-8.53e-06,0.0,0 STARLINK-3398,1 51120U 22005S   22205.11841212 -.00000853  00000-0 -35536-4 0  9993,2 51120  53.2187 115.3651 0001980  54.5852 305.5325 15.08824321 30028,6917.928000000001,95.439,541.163,538.424,0.0
51120.0,STARLINK-3398,PAYLOAD,2022-07-24 10:47:26,15.08825868,0.000198,53.2186,113.8781,53.3478,306.7696,1.0367e-05,-1.23e-06,0.0,0 STARLINK-3398,1 51120U 22005S   22205.44961291 -.00000123  00000-0  10367-4 0  9993,2 51120  53.2186 113.8781 0001980  53.3478 306.7696 15.08825868 28966,6917.924,95.438,541.158,538.419,0.0
